OBJECT_NAME,OBJECT_ID,EPOCH,MEAN_MOTION,ECCENTRICITY,INCLINATION,RA_OF_ASC_NODE,ARG_OF_PERICENTER,MEAN_ANOMALY,EPHEMERIS_TYPE,CLASSIFICATION_TYPE,NORAD_CAT_ID,ELEMENT_SET_NO,REV_AT_EPOCH,BSTAR,MEAN_MOTION_DOT,MEAN_MOTION_DDOT
STARLINK-3569,2022-017AV,2026-06-14T12:53:54.031488,15.08834155,.00011854,53.1602,264.2726,85.8134,274.2993,0,U,51811,999,23858,-.549112E-5,-.375E-5,0
STARLINK-3610,2022-017AW,2026-06-14T13:05:49.600608,15.08831764,.00011741,53.1599,254.2348,86.4221,273.6905,0,U,51812,999,23870,.21849761E-4,.6E-6,0
STARLINK-3552,2022-017AX,2026-06-14T12:39:19.825056,15.08835159,.00012505,53.1610,254.3481,91.3226,268.7909,0,U,51813,999,23870,.4303417E-5,-.219E-5,0
STARLINK-3599,2022-017AY,2026-06-14T12:55:13.577376,15.08831427,.00012648,53.1602,254.2684,88.0329,272.0807,0,U,51814,999,23870,.30499201E-4,.197E-5,0
STARLINK-3604,2022-017AZ,2026-06-14T13:00:31.622688,15.08828947,.00012145,53.1600,254.2516,84.4050,275.7080,0,U,51815,999,23870,-.6437437E-5,-.39E-5,0
STARLINK-3542,2022-022A,2026-06-14T15:06:23.275584,15.08828562,.0001293,53.1610,303.8597,91.9663,268.1476,0,U,51852,999,23639,-.13386E-4,-.501E-5,0
STARLINK-3541,2022-022C,2026-06-14T15:28:36.317856,15.18399146,.0000565,53.2147,297.0869,175.5712,184.5290,0,U,51854,999,23775,.11001E-2,.22658E-3,0
STARLINK-3545,2022-022D,2026-06-14T16:15:15.028128,15.08832714,.0001183,53.1612,303.5672,95.2041,264.9086,0,U,51855,999,23761,.13273E-3,.1825E-4,0
STARLINK-3568,2022-022E,2026-06-14T16:32:33.259776,15.08827232,.0001009,53.1607,303.6020,89.1757,270.9350,0,U,51856,999,23769,.16742E-4,-.21E-6,0
STARLINK-3571,2022-022F,2026-06-14T16:16:38.603712,15.08824691,.0001195,53.1621,303.6493,94.3858,265.7270,0,U,51857,999,23766,-.62662E-4,-.1285E-4,0
STARLINK-3563,2022-022G,2026-06-14T16:20:33.813024,15.08835017,.000115,53.1603,303.6281,84.7620,275.3502,0,U,51858,999,23766,.50902E-4,.522E-5,0
STARLINK-3560,2022-022H,2026-06-14T15:09:04.734720,15.08838876,.0001323,53.1614,293.8586,88.8195,271.2948,0,U,51859,999,23779,.24423E-4,.101E-5,0
STARLINK-3559,2022-022J,2026-06-14T15:18:18.314208,15.08830250,.0001421,53.1615,293.8214,89.6560,270.4594,0,U,51860,999,23775,.72282E-5,-.173E-5,0
STARLINK-3562,2022-022K,2026-06-14T14:57:06.260832,15.08835559,.0001033,53.1609,293.8902,86.3066,273.8043,0,U,51861,999,23766,.40963E-4,.364E-5,0
STARLINK-3508,2022-022L,2026-06-14T15:12:59.678784,15.08839972,.0001133,53.1611,293.8380,84.4836,275.6284,0,U,51862,999,23780,.5713E-4,.621E-5,0
STARLINK-3555,2022-022M,2026-06-14T14:46:30.463104,15.08827197,.0000957,53.1602,293.9211,84.0794,276.0307,0,U,51863,999,23774,-.38282E-3,-.6373E-4,0
STARLINK-3548,2022-022N,2026-06-14T14:51:47.810304,15.08841509,.0001196,53.1600,293.8286,84.3144,275.7983,0,U,51864,999,23779,.57241E-4,.623E-5,0
STARLINK-3503,2022-022P,2026-06-14T14:35:54.319776,15.08836530,.0001281,53.1602,293.9540,91.0122,269.1016,0,U,51865,999,23774,.86155E-4,.1083E-4,0
STARLINK-3553,2022-022Q,2026-06-14T14:31:58.095264,15.08834641,.0001246,53.1604,293.8253,99.2855,260.8278,0,U,51866,999,23774,-.37601E-4,-.886E-5,0
STARLINK-3590,2022-022R,2026-06-14T14:30:36.734112,15.08830680,.0001262,53.1604,293.9702,110.9382,249.1744,0,U,51867,999,23774,.45331E-4,.433E-5,0
STARLINK-3578,2022-022S,2026-06-14T14:41:12.571584,15.08834799,.0001115,53.1595,293.9375,88.1422,271.9697,0,U,51868,999,23774,.41288E-4,.369E-5,0
STARLINK-3588,2022-022T,2026-06-14T15:50:06.159264,15.08829758,.0001217,53.1615,293.7234,95.5689,264.5441,0,U,51869,999,23775,.19606E-4,.24E-6,0
STARLINK-3591,2022-022U,2026-06-14T16:00:44.224992,15.08803938,.0001196,53.1594,293.6874,77.3369,282.7756,0,U,51870,999,23780,-.19954E-3,-.3459E-4,0
STARLINK-3567,2022-022V,2026-06-14T15:44:48.475968,15.08828375,.0001177,53.1602,293.7380,75.1287,284.9834,0,U,51871,999,23786,-.34168E-4,-.831E-5,0
STARLINK-3554,2022-022W,2026-06-14T15:55:24.772224,15.08814183,.0001269,53.1609,293.7069,97.7683,262.3453,0,U,51872,999,23775,.34586E-3,.5217E-4,0
STARLINK-3582,2022-022X,2026-06-14T15:06:51.403104,15.22454557,.0002174,53.2091,282.5825,182.0599,178.0390,0,U,51873,999,23791,.11376E-2,.26426E-3,0
STARLINK-3574,2022-022Y,2026-06-14T15:39:30.354624,15.08829085,.000118,53.1613,293.7561,88.9637,271.1490,0,U,51874,999,23774,.31534E-5,-.238E-5,0
STARLINK-3585,2022-022Z,2026-06-14T15:07:41.424384,15.08833564,.00013,53.1616,293.7669,90.6033,269.5107,0,U,51875,999,23775,-.28336E-4,-.739E-5,0
STARLINK-3583,2022-022AA,2026-06-14T15:34:12.264384,15.08830097,.0001324,53.1609,293.7704,76.6898,283.4241,0,U,51876,999,23775,.11749E-4,-.101E-5,0
STARLINK-3556,2022-022AB,2026-06-14T20:00:04.998816,15.13917820,.0000531,53.1589,282.8907,43.0206,2.2982,0,U,51877,999,579,.32139E-2,.59075E-3,0
