STARLINK-3569           
1 51811U 22017AV  26165.53743092 -.00000375  00000+0 -54911-5 0  9992
2 51811  53.1602 264.2726 0001185  85.8134 274.2993 15.08834155238580
STARLINK-3610           
1 51812U 22017AW  26165.54571297  .00000060  00000+0  21850-4 0  9994
2 51812  53.1599 254.2348 0001174  86.4221 273.6905 15.08831764238700
STARLINK-3552           
1 51813U 22017AX  26165.52731279 -.00000219  00000+0  43034-5 0  9997
2 51813  53.1610 254.3481 0001250  91.3226 268.7909 15.08835159238700
STARLINK-3599           
1 51814U 22017AY  26165.53835159  .00000197  00000+0  30499-4 0  9995
2 51814  53.1602 254.2684 0001264  88.0329 272.0807 15.08831427238707
STARLINK-3604           
1 51815U 22017AZ  26165.54203267 -.00000390  00000+0 -64374-5 0  9993
2 51815  53.1600 254.2516 0001214  84.4050 275.7080 15.08828947238702
STARLINK-3542           
1 51852U 22022A   26165.62943606 -.00000501  00000+0 -13386-4 0  9997
2 51852  53.1610 303.8597 0001293  91.9663 268.1476 15.08828562236395
STARLINK-3541           
1 51854U 22022C   26165.64486479  .00022658  00000+0  11001-2 0  9996
2 51854  53.2147 297.0869 0000565 175.5712 184.5290 15.18399146237752
STARLINK-3545           
1 51855U 22022D   26165.67725727  .00001825  00000+0  13273-3 0  9999
2 51855  53.1612 303.5672 0001183  95.2041 264.9086 15.08832714237617
STARLINK-3568           
1 51856U 22022E   26165.68927384 -.00000021  00000+0  16742-4 0  9997
2 51856  53.1607 303.6020 0001009  89.1757 270.9350 15.08827232237691
STARLINK-3571           
1 51857U 22022F   26165.67822458 -.00001285  00000+0 -62662-4 0  9999
2 51857  53.1621 303.6493 0001195  94.3858 265.7270 15.08824691237664
STARLINK-3563           
1 51858U 22022G   26165.68094691  .00000522  00000+0  50902-4 0  9996
2 51858  53.1603 303.6281 0001150  84.7620 275.3502 15.08835017237660
STARLINK-3560           
1 51859U 22022H   26165.63130480  .00000101  00000+0  24423-4 0  9991
2 51859  53.1614 293.8586 0001323  88.8195 271.2948 15.08838876237794
STARLINK-3559           
1 51860U 22022J   26165.63771197 -.00000173  00000+0  72282-5 0  9996
2 51860  53.1615 293.8214 0001421  89.6560 270.4594 15.08830250237751
STARLINK-3562           
1 51861U 22022K   26165.62298913  .00000364  00000+0  40963-4 0  9997
2 51861  53.1609 293.8902 0001033  86.3066 273.8043 15.08835559237666
STARLINK-3508           
1 51862U 22022L   26165.63402406  .00000621  00000+0  57130-4 0  9993
2 51862  53.1611 293.8380 0001133  84.4836 275.6284 15.08839972237801
STARLINK-3555           
1 51863U 22022M   26165.61563036 -.00006373  00000+0 -38282-3 0  9997
2 51863  53.1602 293.9211 0000957  84.0794 276.0307 15.08827197237748
STARLINK-3548           
1 51864U 22022N   26165.61930336  .00000623  00000+0  57241-4 0  9996
2 51864  53.1600 293.8286 0001196  84.3144 275.7983 15.08841509237790
STARLINK-3503           
1 51865U 22022P   26165.60826759  .00001083  00000+0  86155-4 0  9996
2 51865  53.1602 293.9540 0001281  91.0122 269.1016 15.08836530237740
STARLINK-3553           
1 51866U 22022Q   26165.60553351 -.00000886  00000+0 -37601-4 0  9996
2 51866  53.1604 293.8253 0001246  99.2855 260.8278 15.08834641237746
STARLINK-3590           
1 51867U 22022R   26165.60459183  .00000433  00000+0  45331-4 0  9990
2 51867  53.1604 293.9702 0001262 110.9382 249.1744 15.08830680237748
STARLINK-3578           
1 51868U 22022S   26165.61195106  .00000369  00000+0  41288-4 0  9999
2 51868  53.1595 293.9375 0001115  88.1422 271.9697 15.08834799237747
STARLINK-3588           
1 51869U 22022T   26165.65979351  .00000024  00000+0  19606-4 0  9993
2 51869  53.1615 293.7234 0001217  95.5689 264.5441 15.08829758237758
STARLINK-3591           
1 51870U 22022U   26165.66717853 -.00003459  00000+0 -19954-3 0  9995
2 51870  53.1594 293.6874 0001196  77.3369 282.7756 15.08803938237803
STARLINK-3567           
1 51871U 22022V   26165.65611662 -.00000831  00000+0 -34168-4 0  9992
2 51871  53.1602 293.7380 0001177  75.1287 284.9834 15.08828375237860
STARLINK-3554           
1 51872U 22022W   26165.66348116  .00005217  00000+0  34586-3 0  9999
2 51872  53.1609 293.7069 0001269  97.7683 262.3453 15.08814183237751
STARLINK-3582           
1 51873U 22022X   26165.62976161  .00026426  00000+0  11376-2 0  9999
2 51873  53.2091 282.5825 0002174 182.0599 178.0390 15.22454557237916
STARLINK-3574           
1 51874U 22022Y   26165.65243466 -.00000238  00000+0  31534-5 0  9993
2 51874  53.1613 293.7561 0001180  88.9637 271.1490 15.08829085237743
STARLINK-3585           
1 51875U 22022Z   26165.63034056 -.00000739  00000+0 -28336-4 0  9997
2 51875  53.1616 293.7669 0001300  90.6033 269.5107 15.08833564237754
STARLINK-3583           
1 51876U 22022AA  26165.64875306 -.00000101  00000+0  11749-4 0  9992
2 51876  53.1609 293.7704 0001324  76.6898 283.4241 15.08830097237758
STARLINK-3556           
1 51877U 22022AB  26165.83339119  .00059075  00000+0  32139-2 0  9998
2 51877  53.1589 282.8907 0000531  43.0206   2.2982 15.13917820  5792
